{
  "norad_id": 59712,
  "name": "STARLINK-11108 [DTC]",
  "history": [
    {
      "epoch": "2026-03-28T20:59:53.994336",
      "apogee_km": 360.2114211425005,
      "perigee_km": 359.26003351340205,
      "latitude_deg": 47.60770526896177,
      "longitude_deg": -124.80667296005413,
      "semi_major_axis_km": 6737.872727327951,
      "eccentricity": 7.06e-05,
      "inclination_deg": 53.158,
      "raan_deg": 231.8301,
      "arg_perigee_deg": 109.477,
      "mean_anomaly_deg": 250.6325,
      "mean_motion_rev_day": 15.69706863
    }
  ]
}